[{"OBJECT_NAME":"ONEWEB-0600","OBJECT_ID":"2022-166Y","EPOCH":"2025-08-27T04:31:37.226784","MEAN_MOTION":13.21828163,"ECCENTRICITY":0.00021231,"INCLINATION":87.9235,"RA_OF_ASC_NODE":302.6543,"ARG_OF_PERICENTER":93.5767,"MEAN_ANOMALY":266.561,"EPHEMERIS_TYPE":0,"CLASSIFICATION_TYPE":"U","NORAD_CAT_ID":54664,"ELEMENT_SET_NO":999,"REV_AT_EPOCH":13267,"BSTAR":9.5110864e-5,"MEAN_MOTION_DOT":5.2e-7,"MEAN_MOTION_DDOT":0},{"OBJECT_NAME":"ONEWEB-0601","OBJECT_ID":"2022-166Z","EPOCH":"2025-08-27T02:31:13.194048","MEAN_MOTION":13.21829267,"ECCENTRICITY":0.00023542,"INCLINATION":87.9239,"RA_OF_ASC_NODE":302.6867,"ARG_OF_PERICENTER":97.9989,"MEAN_ANOMALY":262.1412,"EPHEMERIS_TYPE":0,"CLASSIFICATION_TYPE":"U","NORAD_CAT_ID":54665,"ELEMENT_SET_NO":999,"REV_AT_EPOCH":13285,"BSTAR":0.00020944393,"MEAN_MOTION_DOT":1.0e-6,"MEAN_MOTION_DDOT":0},{"OBJECT_NAME":"ONEWEB-0602","OBJECT_ID":"2022-166AA","EPOCH":"2025-08-27T03:29:15.000000","MEAN_MOTION":13.21875928,"ECCENTRICITY":0.00023092,"INCLINATION":87.9244,"RA_OF_ASC_NODE":302.6799,"ARG_OF_PERICENTER":87.2718,"MEAN_ANOMALY":272.868,"EPHEMERIS_TYPE":0,"CLASSIFICATION_TYPE":"U","NORAD_CAT_ID":54666,"ELEMENT_SET_NO":999,"REV_AT_EPOCH":13270,"BSTAR":0.00011960464,"MEAN_MOTION_DOT":6.2e-7,"MEAN_MOTION_DDOT":0},{"OBJECT_NAME":"ONEWEB-0603","OBJECT_ID":"2022-166AB","EPOCH":"2025-08-27T03:37:04.281600","MEAN_MOTION":13.21828768,"ECCENTRICITY":0.00022372,"INCLINATION":87.9236,"RA_OF_ASC_NODE":302.6141,"ARG_OF_PERICENTER":95.5608,"MEAN_ANOMALY":264.5781,"EPHEMERIS_TYPE":0,"CLASSIFICATION_TYPE":"U","NORAD_CAT_ID":54667,"ELEMENT_SET_NO":999,"REV_AT_EPOCH":13263,"BSTAR":8.5895325e-5,"MEAN_MOTION_DOT":4.8e-7,"MEAN_MOTION_DDOT":0},{"OBJECT_NAME":"ONEWEB-0604","OBJECT_ID":"2022-166AC","EPOCH":"2025-08-26T16:24:56.749824","MEAN_MOTION":13.21827848,"ECCENTRICITY":0.00021966,"INCLINATION":87.9244,"RA_OF_ASC_NODE":302.7309,"ARG_OF_PERICENTER":93.2698,"MEAN_ANOMALY":266.8687,"EPHEMERIS_TYPE":0,"CLASSIFICATION_TYPE":"U","NORAD_CAT_ID":54668,"ELEMENT_SET_NO":999,"REV_AT_EPOCH":13253,"BSTAR":9.0328099e-5,"MEAN_MOTION_DOT":5.0e-7,"MEAN_MOTION_DDOT":0},{"OBJECT_NAME":"ONEWEB-0605","OBJECT_ID":"2022-166AD","EPOCH":"2025-08-27T03:09:55.060128","MEAN_MOTION":13.21823886,"ECCENTRICITY":0.00026156,"INCLINATION":87.924,"RA_OF_ASC_NODE":302.6721,"ARG_OF_PERICENTER":105.253,"MEAN_ANOMALY":254.8893,"EPHEMERIS_TYPE":0,"CLASSIFICATION_TYPE":"U","NORAD_CAT_ID":54669,"ELEMENT_SET_NO":999,"REV_AT_EPOCH":13266,"BSTAR":0.0003466774,"MEAN_MOTION_DOT":1.56e-6,"MEAN_MOTION_DDOT":0},{"OBJECT_NAME":"ONEWEB-0606","OBJECT_ID":"2022-166AE","EPOCH":"2025-08-26T22:14:38.954400","MEAN_MOTION":13.21823537,"ECCENTRICITY":0.0001859,"INCLINATION":87.9232,"RA_OF_ASC_NODE":302.7239,"ARG_OF_PERICENTER":98.6376,"MEAN_ANOMALY":261.4969,"EPHEMERIS_TYPE":0,"CLASSIFICATION_TYPE":"U","NORAD_CAT_ID":54670,"ELEMENT_SET_NO":999,"REV_AT_EPOCH":13269,"BSTAR":-0.00017096088,"MEAN_MOTION_DOT":-5.8e-7,"MEAN_MOTION_DDOT":0},{"OBJECT_NAME":"ONEWEB-0607","OBJECT_ID":"2022-166AF","EPOCH":"2025-08-27T02:54:01.572192","MEAN_MOTION":13.21826518,"ECCENTRICITY":0.00021531,"INCLINATION":87.9238,"RA_OF_ASC_NODE":302.6494,"ARG_OF_PERICENTER":96.5942,"MEAN_ANOMALY":263.5437,"EPHEMERIS_TYPE":0,"CLASSIFICATION_TYPE":"U","NORAD_CAT_ID":54671,"ELEMENT_SET_NO":999,"REV_AT_EPOCH":13269,"BSTAR":0.00031392298,"MEAN_MOTION_DOT":1.43e-6,"MEAN_MOTION_DDOT":0},{"OBJECT_NAME":"ONEWEB-0608","OBJECT_ID":"2022-166AG","EPOCH":"2025-08-27T03:03:01.141920","MEAN_MOTION":13.21823612,"ECCENTRICITY":0.00025449,"INCLINATION":87.9231,"RA_OF_ASC_NODE":302.6327,"ARG_OF_PERICENTER":97.8015,"MEAN_ANOMALY":262.3407,"EPHEMERIS_TYPE":0,"CLASSIFICATION_TYPE":"U","NORAD_CAT_ID":54672,"ELEMENT_SET_NO":999,"REV_AT_EPOCH":13270,"BSTAR":0.00034144057,"MEAN_MOTION_DOT":1.54e-6,"MEAN_MOTION_DDOT":0},{"OBJECT_NAME":"ONEWEB-0610","OBJECT_ID":"2022-166AH","EPOCH":"2025-08-27T02:35:48.687360","MEAN_MOTION":13.2182628,"ECCENTRICITY":0.0002609,"INCLINATION":87.924,"RA_OF_ASC_NODE":302.6725,"ARG_OF_PERICENTER":98.3515,"MEAN_ANOMALY":261.7915,"EPHEMERIS_TYPE":0,"CLASSIFICATION_TYPE":"U","NORAD_CAT_ID":54673,"ELEMENT_SET_NO":999,"REV_AT_EPOCH":13260,"BSTAR":0.0001888822,"MEAN_MOTION_DOT":9.1e-7,"MEAN_MOTION_DDOT":0},{"OBJECT_NAME":"ONEWEB-0611","OBJECT_ID":"2022-166AJ","EPOCH":"2025-08-27T04:15:41.537376","MEAN_MOTION":13.21828406,"ECCENTRICITY":0.00017466,"INCLINATION":87.9237,"RA_OF_ASC_NODE":302.655,"ARG_OF_PERICENTER":95.0944,"MEAN_ANOMALY":265.0389,"EPHEMERIS_TYPE":0,"CLASSIFICATION_TYPE":"U","NORAD_CAT_ID":54674,"ELEMENT_SET_NO":999,"REV_AT_EPOCH":13260,"BSTAR":6.066523e-5,"MEAN_MOTION_DOT":3.8e-7,"MEAN_MOTION_DDOT":0},{"OBJECT_NAME":"ONEWEB-0612","OBJECT_ID":"2022-166AK","EPOCH":"2025-08-27T02:44:54.026016","MEAN_MOTION":13.2182725,"ECCENTRICITY":0.00022094,"INCLINATION":87.9241,"RA_OF_ASC_NODE":302.6451,"ARG_OF_PERICENTER":97.2461,"MEAN_ANOMALY":262.8924,"EPHEMERIS_TYPE":0,"CLASSIFICATION_TYPE":"U","NORAD_CAT_ID":54675,"ELEMENT_SET_NO":999,"REV_AT_EPOCH":13258,"BSTAR":0.00021191658,"MEAN_MOTION_DOT":1.01e-6,"MEAN_MOTION_DDOT":0},{"OBJECT_NAME":"ONEWEB-0615","OBJECT_ID":"2022-166AL","EPOCH":"2025-08-26T22:39:35.458560","MEAN_MOTION":13.21828829,"ECCENTRICITY":0.00019368,"INCLINATION":87.924,"RA_OF_ASC_NODE":302.7056,"ARG_OF_PERICENTER":96.0597,"MEAN_ANOMALY":264.0758,"EPHEMERIS_TYPE":0,"CLASSIFICATION_TYPE":"U","NORAD_CAT_ID":54676,"ELEMENT_SET_NO":999,"REV_AT_EPOCH":13257,"BSTAR":7.0714454e-5,"MEAN_MOTION_DOT":4.2e-7,"MEAN_MOTION_DDOT":0},{"OBJECT_NAME":"ONEWEB-0655","OBJECT_ID":"2022-166AM","EPOCH":"2025-08-27T03:28:04.352448","MEAN_MOTION":13.21825535,"ECCENTRICITY":0.00021387,"INCLINATION":87.9241,"RA_OF_ASC_NODE":302.6707,"ARG_OF_PERICENTER":88.604,"MEAN_ANOMALY":271.5339,"EPHEMERIS_TYPE":0,"CLASSIFICATION_TYPE":"U","NORAD_CAT_ID":54677,"ELEMENT_SET_NO":999,"REV_AT_EPOCH":13259,"BSTAR":0.00013832553,"MEAN_MOTION_DOT":7.0e-7,"MEAN_MOTION_DDOT":0},{"OBJECT_NAME":"ONEWEB-0659","OBJECT_ID":"2022-166AN","EPOCH":"2025-08-27T03:53:00.196512","MEAN_MOTION":13.2183823,"ECCENTRICITY":0.00019436,"INCLINATION":87.9239,"RA_OF_ASC_NODE":302.6679,"ARG_OF_PERICENTER":98.616,"MEAN_ANOMALY":261.5194,"EPHEMERIS_TYPE":0,"CLASSIFICATION_TYPE":"U","NORAD_CAT_ID":54678,"ELEMENT_SET_NO":999,"REV_AT_EPOCH":13268,"BSTAR":-0.0050282382,"MEAN_MOTION_DOT":-2.064e-5,"MEAN_MOTION_DDOT":0},{"OBJECT_NAME":"ONEWEB-0685","OBJECT_ID":"2022-166AP","EPOCH":"2025-08-27T03:55:19.028352","MEAN_MOTION":13.21824248,"ECCENTRICITY":0.00022523,"INCLINATION":87.9243,"RA_OF_ASC_NODE":302.6632,"ARG_OF_PERICENTER":96.8601,"MEAN_ANOMALY":263.2789,"EPHEMERIS_TYPE":0,"CLASSIFICATION_TYPE":"U","NORAD_CAT_ID":54679,"ELEMENT_SET_NO":999,"REV_AT_EPOCH":13257,"BSTAR":1.5908287e-5,"MEAN_MOTION_DOT":2.0e-7,"MEAN_MOTION_DDOT":0}]
