ONEWEB-0600             
1 54664U 22166Y   25239.18862531  .00000052  00000+0  95111-4 0  9994
2 54664  87.9235 302.6543 0002123  93.5767 266.5610 13.21828163132679
ONEWEB-0601             
1 54665U 22166Z   25239.10501382  .00000100  00000+0  20944-3 0  9996
2 54665  87.9239 302.6867 0002354  97.9989 262.1412 13.21829267132851
ONEWEB-0602             
1 54666U 22166AA  25239.14531250  .00000062  00000+0  11960-3 0  9993
2 54666  87.9244 302.6799 0002309  87.2718 272.8680 13.21875928132708
ONEWEB-0603             
1 54667U 22166AB  25239.15074400  .00000048  00000+0  85895-4 0  9997
2 54667  87.9236 302.6141 0002237  95.5608 264.5781 13.21828768132633
ONEWEB-0604             
1 54668U 22166AC  25238.68399016  .00000050  00000+0  90328-4 0  9998
2 54668  87.9244 302.7309 0002196  93.2698 266.8687 13.21827848132535
ONEWEB-0605             
1 54669U 22166AD  25239.13188727  .00000156  00000+0  34668-3 0  9996
2 54669  87.9240 302.6721 0002615 105.2530 254.8893 13.21823886132662
ONEWEB-0606             
1 54670U 22166AE  25238.92683975 -.00000058  00000+0 -17096-3 0  9998
2 54670  87.9232 302.7239 0001859  98.6376 261.4969 13.21823537132696
ONEWEB-0607             
1 54671U 22166AF  25239.12085153  .00000143  00000+0  31392-3 0  9994
2 54671  87.9238 302.6494 0002153  96.5942 263.5437 13.21826518132694
ONEWEB-0608             
1 54672U 22166AG  25239.12709655  .00000154  00000+0  34144-3 0  9995
2 54672  87.9231 302.6327 0002544  97.8015 262.3407 13.21823612132700
ONEWEB-0610             
1 54673U 22166AH  25239.10820240  .00000091  00000+0  18888-3 0  9995
2 54673  87.9240 302.6725 0002609  98.3515 261.7915 13.21826280132606
ONEWEB-0611             
1 54674U 22166AJ  25239.17756409  .00000038  00000+0  60665-4 0  9990
2 54674  87.9237 302.6550 0001746  95.0944 265.0389 13.21828406132604
ONEWEB-0612             
1 54675U 22166AK  25239.11451419  .00000101  00000+0  21192-3 0  9990
2 54675  87.9241 302.6451 0002209  97.2461 262.8924 13.21827250132586
ONEWEB-0615             
1 54676U 22166AL  25238.94416040  .00000042  00000+0  70714-4 0  9991
2 54676  87.9240 302.7056 0001936  96.0597 264.0758 13.21828829132572
ONEWEB-0655             
1 54677U 22166AM  25239.14449482  .00000070  00000+0  13833-3 0  9990
2 54677  87.9241 302.6707 0002138  88.6040 271.5339 13.21825535132592
ONEWEB-0659             
1 54678U 22166AN  25239.16180783 -.00002064  00000+0 -50282-2 0  9994
2 54678  87.9239 302.6679 0001943  98.6160 261.5194 13.21838230132689
ONEWEB-0685             
1 54679U 22166AP  25239.16341468  .00000020  00000+0  15908-4 0  9990
2 54679  87.9243 302.6632 0002252  96.8601 263.2789 13.21824248132579
